COSMOS 2251 DEB
1 34001U 93036AAA 26256.41285000  .00001542  00000-0  18451-4 0  9994
2 34001  74.0412 185.4120 0038412 210.4512 149.3245 14.32415020845123
IRIDIUM 33 DEB
1 33758U 97051AAB 26256.51240000  .00001894  00000-0  21458-4 0  9997
2 33758  86.3984 042.1582 0041258 178.4125 181.6541 14.35128410754129
FENGYUN 1C DEB
1 30200U 99025AAC 26256.39841000  .00000854  00000-0  95412-5 0  9991
2 30200  98.6541 312.4518 0085412 045.1245 315.0125 13.84125030954126
CZ-4C DEB
1 41901U 16068A   26256.62145000  .00001245  00000-0  14582-4 0  9998
2 41901  98.4125 145.8412 0021458 290.4125 069.4512 14.12584120541258
SL-16 DEB
1 26044U 99060A   26256.45821000  .00000642  00000-0  78412-5 0  9993
2 26044  71.0245 280.4512 0014582 124.5841 235.5412 14.28412540654121
