STARLINK-3142
1 49863U 21105A   26256.42187500  .00012450  00000-0  54123-3 0  9993
2 49863  53.2184 142.1582 0001421  89.4125 270.7124 15.06412850241512
STARLINK-1007
1 44713U 19074A   26256.51241000  .00009842  00000-0  42198-3 0  9998
2 44713  53.0541 210.4518 0001654 112.5481 247.5841 15.06385410384125
STARLINK-2041
1 47120U 20088A   26256.38412000  .00011024  00000-0  49871-3 0  9991
2 47120  53.2201 085.1245 0001389  74.1205 286.0145 15.06401240294158
STARLINK-5120
1 53841U 22115A   26256.61245000  .00013840  00000-0  61245-3 0  9995
2 53841  53.2190 310.8412 0001512  98.1452 261.9841 15.06421050184519
STARLINK-5219
1 54012U 22132A   26256.49120000  .00012950  00000-0  58412-3 0  9992
2 54012  53.2178 024.5841 0001478  65.4128 294.7125 15.06418520175416
STARLINK-5301
1 54200U 22145A   26256.58410000  .00014120  00000-0  63412-3 0  9996
2 54200  53.2185 189.4120 0001540 120.4512 239.6841 15.06425140162148
